CCSDS_OMM_VERS = 2.0
CREATION_DATE  = 
ORIGINATOR     = 

OBJECT_NAME    = STARLINK-36198
OBJECT_ID      = 2025-303E
CENTER_NAME    = EARTH
REF_FRAME      = TEME
TIME_SYSTEM    = UTC
MEAN_ELEMENT_THEORY = SGP/SGP4

EPOCH          = 2026-01-14T18:06:53.404128
MEAN_MOTION    = 15.40732347
ECCENTRICITY   = .0001548
INCLINATION    = 42.9984
RA_OF_ASC_NODE = 259.0293
ARG_OF_PERICENTER = 275.0544
MEAN_ANOMALY   = 85.0135

EPHEMERIS_TYPE = 0
CLASSIFICATION_TYPE = U
NORAD_CAT_ID   = 67167
ELEMENT_SET_NO = 999
REV_AT_EPOCH   = 444
BSTAR          = .50603E-3
MEAN_MOTION_DOT = .20915E-3
MEAN_MOTION_DDOT = 0

CCSDS_OMM_VERS = 2.0
CREATION_DATE  = 
ORIGINATOR     = 

OBJECT_NAME    = STARLINK-35903
OBJECT_ID      = 2025-303F
CENTER_NAME    = EARTH
REF_FRAME      = TEME
TIME_SYSTEM    = UTC
MEAN_ELEMENT_THEORY = SGP/SGP4

EPOCH          = 2026-01-14T16:39:59.011200
MEAN_MOTION    = 15.40712187
ECCENTRICITY   = .0001089
INCLINATION    = 42.9987
RA_OF_ASC_NODE = 259.4375
ARG_OF_PERICENTER = 295.7381
MEAN_ANOMALY   = 64.3363

EPHEMERIS_TYPE = 0
CLASSIFICATION_TYPE = U
NORAD_CAT_ID   = 67168
ELEMENT_SET_NO = 999
REV_AT_EPOCH   = 443
BSTAR          = .32804E-3
MEAN_MOTION_DOT = .13429E-3
MEAN_MOTION_DDOT = 0

CCSDS_OMM_VERS = 2.0
CREATION_DATE  = 
ORIGINATOR     = 

OBJECT_NAME    = STARLINK-35839
OBJECT_ID      = 2025-303G
CENTER_NAME    = EARTH
REF_FRAME      = TEME
TIME_SYSTEM    = UTC
MEAN_ELEMENT_THEORY = SGP/SGP4

EPOCH          = 2026-01-14T16:27:04.752288
MEAN_MOTION    = 15.40715255
ECCENTRICITY   = .0001791
INCLINATION    = 42.9988
RA_OF_ASC_NODE = 259.3685
ARG_OF_PERICENTER = 279.3509
MEAN_ANOMALY   = 80.7145

EPHEMERIS_TYPE = 0
CLASSIFICATION_TYPE = U
NORAD_CAT_ID   = 67169
ELEMENT_SET_NO = 999
REV_AT_EPOCH   = 443
BSTAR          = .59099E-3
MEAN_MOTION_DOT = .24475E-3
MEAN_MOTION_DDOT = 0

CCSDS_OMM_VERS = 2.0
CREATION_DATE  = 
ORIGINATOR     = 

OBJECT_NAME    = STARLINK-35863
OBJECT_ID      = 2025-303H
CENTER_NAME    = EARTH
REF_FRAME      = TEME
TIME_SYSTEM    = UTC
MEAN_ELEMENT_THEORY = SGP/SGP4

EPOCH          = 2026-01-14T22:00:00.999936
MEAN_MOTION    = 15.40697734
ECCENTRICITY   = .00017299
INCLINATION    = 42.9989
RA_OF_ASC_NODE = 257.9784
ARG_OF_PERICENTER = 260.3499
MEAN_ANOMALY   = 328.4978

EPHEMERIS_TYPE = 0
CLASSIFICATION_TYPE = U
NORAD_CAT_ID   = 67170
ELEMENT_SET_NO = 999
REV_AT_EPOCH   = 576
BSTAR          = .35341423E-4
MEAN_MOTION_DOT = .1173E-4
MEAN_MOTION_DDOT = 0

CCSDS_OMM_VERS = 2.0
CREATION_DATE  = 
ORIGINATOR     = 

OBJECT_NAME    = STARLINK-35771
OBJECT_ID      = 2025-303J
CENTER_NAME    = EARTH
REF_FRAME      = TEME
TIME_SYSTEM    = UTC
MEAN_ELEMENT_THEORY = SGP/SGP4

EPOCH          = 2026-01-14T18:03:39.373056
MEAN_MOTION    = 15.40732907
ECCENTRICITY   = .0001454
INCLINATION    = 42.9986
RA_OF_ASC_NODE = 259.0120
ARG_OF_PERICENTER = 267.4050
MEAN_ANOMALY   = 92.6640

EPHEMERIS_TYPE = 0
CLASSIFICATION_TYPE = U
NORAD_CAT_ID   = 67171
ELEMENT_SET_NO = 999
REV_AT_EPOCH   = 444
BSTAR          = .6034E-3
MEAN_MOTION_DOT = .25012E-3
MEAN_MOTION_DDOT = 0

CCSDS_OMM_VERS = 2.0
CREATION_DATE  = 
ORIGINATOR     = 

OBJECT_NAME    = STARLINK-35762
OBJECT_ID      = 2025-303K
CENTER_NAME    = EARTH
REF_FRAME      = TEME
TIME_SYSTEM    = UTC
MEAN_ELEMENT_THEORY = SGP/SGP4

EPOCH          = 2026-01-14T17:57:12.330432
MEAN_MOTION    = 15.40714861
ECCENTRICITY   = .0001874
INCLINATION    = 42.9993
RA_OF_ASC_NODE = 258.9776
ARG_OF_PERICENTER = 254.2177
MEAN_ANOMALY   = 105.8473

EPHEMERIS_TYPE = 0
CLASSIFICATION_TYPE = U
NORAD_CAT_ID   = 67172
ELEMENT_SET_NO = 999
REV_AT_EPOCH   = 444
BSTAR          = .72817E-3
MEAN_MOTION_DOT = .3025E-3
MEAN_MOTION_DDOT = 0

CCSDS_OMM_VERS = 2.0
CREATION_DATE  = 
ORIGINATOR     = 

OBJECT_NAME    = STARLINK-36183
OBJECT_ID      = 2025-303L
CENTER_NAME    = EARTH
REF_FRAME      = TEME
TIME_SYSTEM    = UTC
MEAN_ELEMENT_THEORY = SGP/SGP4

EPOCH          = 2026-01-14T17:50:44.491200
MEAN_MOTION    = 15.40738091
ECCENTRICITY   = .000159
INCLINATION    = 42.9992
RA_OF_ASC_NODE = 258.9424
ARG_OF_PERICENTER = 256.7768
MEAN_ANOMALY   = 103.2911

EPHEMERIS_TYPE = 0
CLASSIFICATION_TYPE = U
NORAD_CAT_ID   = 67173
ELEMENT_SET_NO = 999
REV_AT_EPOCH   = 444
BSTAR          = .65612E-3
MEAN_MOTION_DOT = .27237E-3
MEAN_MOTION_DDOT = 0

CCSDS_OMM_VERS = 2.0
CREATION_DATE  = 
ORIGINATOR     = 

OBJECT_NAME    = STARLINK-36210
OBJECT_ID      = 2025-303M
CENTER_NAME    = EARTH
REF_FRAME      = TEME
TIME_SYSTEM    = UTC
MEAN_ELEMENT_THEORY = SGP/SGP4

EPOCH          = 2026-01-14T03:47:21.207840
MEAN_MOTION    = 15.40707523
ECCENTRICITY   = .0001102
INCLINATION    = 42.9982
RA_OF_ASC_NODE = 262.2883
ARG_OF_PERICENTER = 288.6298
MEAN_ANOMALY   = 71.4439

EPHEMERIS_TYPE = 0
CLASSIFICATION_TYPE = U
NORAD_CAT_ID   = 67174
ELEMENT_SET_NO = 999
REV_AT_EPOCH   = 435
BSTAR          = .62498E-3
MEAN_MOTION_DOT = .25898E-3
MEAN_MOTION_DDOT = 0

CCSDS_OMM_VERS = 2.0
CREATION_DATE  = 
ORIGINATOR     = 

OBJECT_NAME    = STARLINK-35756
OBJECT_ID      = 2025-303N
CENTER_NAME    = EARTH
REF_FRAME      = TEME
TIME_SYSTEM    = UTC
MEAN_ELEMENT_THEORY = SGP/SGP4

EPOCH          = 2026-01-14T03:40:54.568704
MEAN_MOTION    = 15.40668138
ECCENTRICITY   = .0002184
INCLINATION    = 42.9995
RA_OF_ASC_NODE = 262.2529
ARG_OF_PERICENTER = 249.4868
MEAN_ANOMALY   = 110.5754

EPHEMERIS_TYPE = 0
CLASSIFICATION_TYPE = U
NORAD_CAT_ID   = 67175
ELEMENT_SET_NO = 999
REV_AT_EPOCH   = 435
BSTAR          = .76451E-3
MEAN_MOTION_DOT = .31732E-3
MEAN_MOTION_DDOT = 0

CCSDS_OMM_VERS = 2.0
CREATION_DATE  = 
ORIGINATOR     = 

OBJECT_NAME    = STARLINK-35785
OBJECT_ID      = 2025-303P
CENTER_NAME    = EARTH
REF_FRAME      = TEME
TIME_SYSTEM    = UTC
MEAN_ELEMENT_THEORY = SGP/SGP4

EPOCH          = 2026-01-14T03:44:08.244672
MEAN_MOTION    = 15.40673071
ECCENTRICITY   = .0001506
INCLINATION    = 42.9985
RA_OF_ASC_NODE = 262.2698
ARG_OF_PERICENTER = 276.5852
MEAN_ANOMALY   = 83.4833

EPHEMERIS_TYPE = 0
CLASSIFICATION_TYPE = U
NORAD_CAT_ID   = 67176
ELEMENT_SET_NO = 999
REV_AT_EPOCH   = 435
BSTAR          = .96408E-3
MEAN_MOTION_DOT = .40144E-3
MEAN_MOTION_DDOT = 0

CCSDS_OMM_VERS = 2.0
CREATION_DATE  = 
ORIGINATOR     = 

OBJECT_NAME    = STARLINK-35853
OBJECT_ID      = 2025-303Q
CENTER_NAME    = EARTH
REF_FRAME      = TEME
TIME_SYSTEM    = UTC
MEAN_ELEMENT_THEORY = SGP/SGP4

EPOCH          = 2026-01-14T03:37:40.960128
MEAN_MOTION    = 15.40799815
ECCENTRICITY   = .0001627
INCLINATION    = 42.9988
RA_OF_ASC_NODE = 262.2355
ARG_OF_PERICENTER = 232.5395
MEAN_ANOMALY   = 127.5313

EPHEMERIS_TYPE = 0
CLASSIFICATION_TYPE = U
NORAD_CAT_ID   = 67177
ELEMENT_SET_NO = 999
REV_AT_EPOCH   = 435
BSTAR          = -.27331E-2
MEAN_MOTION_DOT = -.113172E-2
MEAN_MOTION_DDOT = 0

CCSDS_OMM_VERS = 2.0
CREATION_DATE  = 
ORIGINATOR     = 

OBJECT_NAME    = STARLINK-35878
OBJECT_ID      = 2025-303R
CENTER_NAME    = EARTH
REF_FRAME      = TEME
TIME_SYSTEM    = UTC
MEAN_ELEMENT_THEORY = SGP/SGP4

EPOCH          = 2026-01-14T03:31:41.625120
MEAN_MOTION    = 15.43253081
ECCENTRICITY   = .000265
INCLINATION    = 42.9988
RA_OF_ASC_NODE = 262.2019
ARG_OF_PERICENTER = 353.7884
MEAN_ANOMALY   = 6.2940

EPHEMERIS_TYPE = 0
CLASSIFICATION_TYPE = U
NORAD_CAT_ID   = 67178
ELEMENT_SET_NO = 999
REV_AT_EPOCH   = 435
BSTAR          = -.63589E-2
MEAN_MOTION_DOT = -.279432E-2
MEAN_MOTION_DDOT = 0

