STARLINK-36198          
1 67167U 25303E   26014.75478477  .00020915  00000+0  50603-3 0  9995
2 67167  42.9984 259.0293 0001548 275.0544  85.0135 15.40732347  4440
STARLINK-35903          
1 67168U 25303F   26014.69443300  .00013429  00000+0  32804-3 0  9991
2 67168  42.9987 259.4375 0001089 295.7381  64.3363 15.40712187  4439
STARLINK-35839          
1 67169U 25303G   26014.68547167  .00024475  00000+0  59099-3 0  9995
2 67169  42.9988 259.3685 0001791 279.3509  80.7145 15.40715255  4433
STARLINK-35863          
1 67170U 25303H   26014.91667824  .00001173  00000+0  35341-4 0  9991
2 67170  42.9989 257.9784 0001729 260.3499 328.4978 15.40697734  5763
STARLINK-35771          
1 67171U 25303J   26014.75253904  .00025012  00000+0  60340-3 0  9998
2 67171  42.9986 259.0120 0001454 267.4050  92.6640 15.40732907  4446
STARLINK-35762          
1 67172U 25303K   26014.74805938  .00030250  00000+0  72817-3 0  9990
2 67172  42.9993 258.9776 0001874 254.2177 105.8473 15.40714861  4440
STARLINK-36183          
1 67173U 25303L   26014.74357050  .00027237  00000+0  65612-3 0  9994
2 67173  42.9992 258.9424 0001590 256.7768 103.2911 15.40738091  4448
STARLINK-36210          
1 67174U 25303M   26014.15788435  .00025898  00000+0  62498-3 0  9995
2 67174  42.9982 262.2883 0001102 288.6298  71.4439 15.40707523  4353
STARLINK-35756          
1 67175U 25303N   26014.15340936  .00031732  00000+0  76451-3 0  9994
2 67175  42.9995 262.2529 0002184 249.4868 110.5754 15.40668138  4357
STARLINK-35785          
1 67176U 25303P   26014.15565098  .00040144  00000+0  96408-3 0  9994
2 67176  42.9985 262.2698 0001506 276.5852  83.4833 15.40673071  4353
STARLINK-35853          
1 67177U 25303Q   26014.15116852 -.00113172  00000+0 -27331-2 0  9997
2 67177  42.9988 262.2355 0001627 232.5395 127.5313 15.40799815  4353
STARLINK-35878          
1 67178U 25303R   26014.14700955 -.00279432  00000+0 -63589-2 0  9997
2 67178  42.9988 262.2019 0002650 353.7884   6.2940 15.43253081  4359
